{
  "type": "FeatureCollection",
  "features": [
    {
      "type": "Feature",
      "properties": {
        "norad_id": 66997,
        "name": "2025-292E",
        "group": "last-30-days",
        "lat": -69.158633311613,
        "lon": 93.26443848007028,
        "alt_km": 554.6787120319759,
        "timestamp": "2025-12-26T03:50:10.809887+00:00",
        "meta_object_name": "2025-292E",
        "meta_object_id": "2025-292E",
        "meta_epoch": "2025-12-25T20:10:11.811072",
        "meta_mean_motion": 15.04775311,
        "meta_eccentricity": 0.0014258,
        "meta_inclination": 97.6509,
        "meta_ra_of_asc_node": 72.2705,
        "meta_arg_of_pericenter": 229.5176,
        "meta_mean_anomaly": 130.4808,
        "meta_ephemeris_type": 0,
        "meta_classification_type": "U",
        "meta_norad_cat_id": 66997,
        "meta_element_set_no": 999,
        "meta_rev_at_epoch": 235,
        "meta_bstar": 0.00032718,
        "meta_mean_motion_dot": 4.563e-05,
        "meta_mean_motion_ddot": 0,
        "tle_line1": "1 66997U 25292E   25359.84041448  .00004563  00000+0  32718-3 0  9995",
        "tle_line2": "2 66997  97.6509  72.2705 0014258 229.5176 130.4808 15.04775311  2358"
      },
      "geometry": {
        "type": "Point",
        "coordinates": [
          93.26443848007028,
          -69.158633311613
        ]
      }
    },
    {
      "type": "Feature",
      "properties": {
        "norad_id": 66998,
        "name": "2025-292F",
        "group": "last-30-days",
        "lat": -60.18160467048556,
        "lon": 86.16299220259819,
        "alt_km": 555.0632574383408,
        "timestamp": "2025-12-26T03:50:10.809897+00:00",
        "meta_object_name": "2025-292F",
        "meta_object_id": "2025-292F",
        "meta_epoch": "2025-12-25T20:07:44.048064",
        "meta_mean_motion": 15.04959815,
        "meta_eccentricity": 0.0015382,
        "meta_inclination": 97.6529,
        "meta_ra_of_asc_node": 72.2763,
        "meta_arg_of_pericenter": 230.4068,
        "meta_mean_anomaly": 129.5801,
        "meta_ephemeris_type": 0,
        "meta_classification_type": "U",
        "meta_norad_cat_id": 66998,
        "meta_element_set_no": 999,
        "meta_rev_at_epoch": 236,
        "meta_bstar": 0.00043961,
        "meta_mean_motion_dot": 6.186e-05,
        "meta_mean_motion_ddot": 0,
        "tle_line1": "1 66998U 25292F   25359.83870426  .00006186  00000+0  43961-3 0  9996",
        "tle_line2": "2 66998  97.6529  72.2763 0015382 230.4068 129.5801 15.04959815  2361"
      },
      "geometry": {
        "type": "Point",
        "coordinates": [
          86.16299220259819,
          -60.18160467048556
        ]
      }
    },
    {
      "type": "Feature",
      "properties": {
        "norad_id": 66999,
        "name": "2025-292G",
        "group": "last-30-days",
        "lat": -56.657908033719636,
        "lon": 84.39151574734966,
        "alt_km": 555.2049629152307,
        "timestamp": "2025-12-26T03:50:10.809910+00:00",
        "meta_object_name": "2025-292G",
        "meta_object_id": "2025-292G",
        "meta_epoch": "2025-12-25T20:06:46.929024",
        "meta_mean_motion": 15.05024059,
        "meta_eccentricity": 0.0014896,
        "meta_inclination": 97.6537,
        "meta_ra_of_asc_node": 72.2787,
        "meta_arg_of_pericenter": 232.3626,
        "meta_mean_anomaly": 127.6249,
        "meta_ephemeris_type": 0,
        "meta_classification_type": "U",
        "meta_norad_cat_id": 66999,
        "meta_element_set_no": 999,
        "meta_rev_at_epoch": 236,
        "meta_bstar": 0.00044332,
        "meta_mean_motion_dot": 6.249e-05,
        "meta_mean_motion_ddot": 0,
        "tle_line1": "1 66999U 25292G   25359.83804316  .00006249  00000+0  44332-3 0  9995",
        "tle_line2": "2 66999  97.6537  72.2787 0014896 232.3626 127.6249 15.05024059  2366"
      },
      "geometry": {
        "type": "Point",
        "coordinates": [
          84.39151574734966,
          -56.657908033719636
        ]
      }
    },
    {
      "type": "Feature",
      "properties": {
        "norad_id": 67000,
        "name": "2025-292H",
        "group": "last-30-days",
        "lat": -55.9346201282334,
        "lon": 84.07377413525386,
        "alt_km": 555.2433074215878,
        "timestamp": "2025-12-26T03:50:10.809920+00:00",
        "meta_object_name": "2025-292H",
        "meta_object_id": "2025-292H",
        "meta_epoch": "2025-12-25T20:06:35.652096",
        "meta_mean_motion": 15.05056927,
        "meta_eccentricity": 0.0014849,
        "meta_inclination": 97.655,
        "meta_ra_of_asc_node": 72.2813,
        "meta_arg_of_pericenter": 232.2458,
        "meta_mean_anomaly": 127.7423,
        "meta_ephemeris_type": 0,
        "meta_classification_type": "U",
        "meta_norad_cat_id": 67000,
        "meta_element_set_no": 999,
        "meta_rev_at_epoch": 223,
        "meta_bstar": 0.00054613,
        "meta_mean_motion_dot": 7.721e-05,
        "meta_mean_motion_ddot": 0,
        "tle_line1": "1 67000U 25292H   25359.83791264  .00007721  00000+0  54613-3 0  9995",
        "tle_line2": "2 67000  97.6550  72.2813 0014849 232.2458 127.7423 15.05056927  2235"
      },
      "geometry": {
        "type": "Point",
        "coordinates": [
          84.07377413525386,
          -55.9346201282334
        ]
      }
    },
    {
      "type": "Feature",
      "properties": {
        "norad_id": 67001,
        "name": "2025-292J",
        "group": "last-30-days",
        "lat": -82.28027030049542,
        "lon": 169.88173164980003,
        "alt_km": 553.6550034365509,
        "timestamp": "2025-12-26T03:50:10.809930+00:00",
        "meta_object_name": "2025-292J",
        "meta_object_id": "2025-292J",
        "meta_epoch": "2025-12-25T20:15:32.354208",
        "meta_mean_motion": 15.04440477,
        "meta_eccentricity": 0.0015106,
        "meta_inclination": 97.6527,
        "meta_ra_of_asc_node": 72.2692,
        "meta_arg_of_pericenter": 221.3944,
        "meta_mean_anomaly": 138.6138,
        "meta_ephemeris_type": 0,
        "meta_classification_type": "U",
        "meta_norad_cat_id": 67001,
        "meta_element_set_no": 999,
        "meta_rev_at_epoch": 236,
        "meta_bstar": 0.00041696,
        "meta_mean_motion_dot": 5.782e-05,
        "meta_mean_motion_ddot": 0,
        "tle_line1": "1 67001U 25292J   25359.84412447  .00005782  00000+0  41696-3 0  9992",
        "tle_line2": "2 67001  97.6527  72.2692 0015106 221.3944 138.6138 15.04440477  2365"
      },
      "geometry": {
        "type": "Point",
        "coordinates": [
          169.88173164980003,
          -82.28027030049542
        ]
      }
    },
    {
      "type": "Feature",
      "properties": {
        "norad_id": 67002,
        "name": "ZK-1A R/B",
        "group": "last-30-days",
        "lat": 12.244095524926196,
        "lon": 72.36392440023076,
        "alt_km": 313.06962402452336,
        "timestamp": "2025-12-26T03:50:10.809942+00:00",
        "meta_object_name": "ZK-1A R/B",
        "meta_object_id": "2025-292K",
        "meta_epoch": "2025-12-25T15:27:35.558784",
        "meta_mean_motion": 15.58719321,
        "meta_eccentricity": 0.0205301,
        "meta_inclination": 97.72,
        "meta_ra_of_asc_node": 73.491,
        "meta_arg_of_pericenter": 318.2476,
        "meta_mean_anomaly": 40.3264,
        "meta_ephemeris_type": 0,
        "meta_classification_type": "U",
        "meta_norad_cat_id": 67002,
        "meta_element_set_no": 999,
        "meta_rev_at_epoch": 240,
        "meta_bstar": 0.00075461,
        "meta_mean_motion_dot": 0.00163638,
        "meta_mean_motion_ddot": 9.391e-06,
        "tle_line1": "1 67002U 25292K   25359.64416156  .00163638  93910-5  75461-3 0  9992",
        "tle_line2": "2 67002  97.7200  73.4910 0205301 318.2476  40.3264 15.58719321  2405"
      },
      "geometry": {
        "type": "Point",
        "coordinates": [
          72.36392440023076,
          12.244095524926196
        ]
      }
    },
    {
      "type": "Feature",
      "properties": {
        "norad_id": 67003,
        "name": "STARLINK-35660",
        "group": "last-30-days",
        "lat": 55.79022869697248,
        "lon": -42.58029699808807,
        "alt_km": 342.46798594562006,
        "timestamp": "2025-12-26T03:50:10.809953+00:00",
        "meta_object_name": "STARLINK-35660",
        "meta_object_id": "2025-293A",
        "meta_epoch": "2025-12-25T20:00:01.999008",
        "meta_mean_motion": 15.75601923,
        "meta_eccentricity": 0.0003651,
        "meta_inclination": 69.9945,
        "meta_ra_of_asc_node": 285.9379,
        "meta_arg_of_pericenter": 265.6519,
        "meta_mean_anomaly": 105.4059,
        "meta_ephemeris_type": 0,
        "meta_classification_type": "U",
        "meta_norad_cat_id": 67003,
        "meta_element_set_no": 999,
        "meta_rev_at_epoch": 227,
        "meta_bstar": -0.012247,
        "meta_mean_motion_dot": -0.01664063,
        "meta_mean_motion_ddot": 0,
        "tle_line1": "1 67003U 25293A   25359.83335647 -.01664063  00000+0 -12247-1 0  9994",
        "tle_line2": "2 67003  69.9945 285.9379 0003651 265.6519 105.4059 15.75601923  2276"
      },
      "geometry": {
        "type": "Point",
        "coordinates": [
          -42.58029699808807,
          55.79022869697248
        ]
      }
    }
  ]
}